H1 CPF  1  DGF 2022 02 03 11  5341 larets     NONE      
H2   304206 5557    27944 2022 01 31 00 00 00 2022 02 07 00 00 00    30 1 1  0 0 0
H5  0.0650
H9
10 0 59614  46800.000000  0       6544289.153       1489381.397      -2232708.002
10 0 59614  46830.000000  0       6483136.941       1425929.778      -2442694.998
10 0 59614  46860.000000  0       6415160.442       1361321.300      -2650198.119
10 0 59614  46890.000000  0       6340424.314       1295651.093      -2855006.726
10 0 59614  46920.000000  0       6259000.454       1229015.041      -3056912.986
10 0 59614  46950.000000  0       6170967.927       1161509.661      -3255712.084
10 0 59614  46980.000000  0       6076412.882       1093231.966      -3451202.431
10 0 59614  47010.000000  0       5975428.455       1024279.336      -3643185.863
10 0 59614  47040.000000  0       5868114.674        954749.393      -3831467.848
10 0 59614  47070.000000  0       5754578.347        884739.865      -4015857.674
10 0 59614  47100.000000  0       5634932.949        814348.460      -4196168.640
10 0 59614  47130.000000  0       5509298.500        743672.740      -4372218.244
10 0 59614  47160.000000  0       5377801.437        672809.988      -4543828.354
10 0 59614  47190.000000  0       5240574.481        601857.089      -4710825.390
10 0 59614  47220.000000  0       5097756.494        530910.399      -4873040.490
10 0 59614  47250.000000  0       4949492.338        460065.625      -5030309.675
10 0 59614  47280.000000  0       4795932.717        389417.701      -5182474.011
10 0 59614  47310.000000  0       4637234.019        319060.672      -5329379.759
10 0 59614  47340.000000  0       4473558.155        249087.573      -5470878.528
10 0 59614  47370.000000  0       4305072.385        179590.312      -5606827.413
10 0 59614  47400.000000  0       4131949.152        110659.560      -5737089.136
10 0 59614  47430.000000  0       3954365.893         42384.635      -5861532.183
10 0 59614  47460.000000  0       3772504.860        -25146.606      -5980030.926
10 0 59614  47490.000000  0       3586552.922        -91847.875      -6092465.744
10 0 59614  47520.000000  0       3396701.374       -157634.560      -6198723.138
10 0 59614  47550.000000  0       3203145.735       -222423.822      -6298695.832
10 0 59614  47580.000000  0       3006085.550       -286134.700      -6392282.875
10 0 59614  47610.000000  0       2805724.183       -348688.206      -6479389.733
10 0 59614  47640.000000  0       2602268.610       -410007.414      -6559928.384
10 0 59614  47670.000000  0       2395929.208       -470017.555      -6633817.391
10 0 59614  47700.000000  0       2186919.537       -528646.104      -6700981.991
10 0 59614  47730.000000  0       1975456.130       -585822.862      -6761354.156
10 0 59614  47760.000000  0       1761758.264       -641480.042      -6814872.671
10 0 59614  47790.000000  0       1546047.736       -695552.346      -6861483.184
10 0 59614  47820.000000  0       1328548.633       -747977.036      -6901138.261
10 0 59614  47850.000000  0       1109487.106       -798694.006      -6933797.434
10 0 59614  47880.000000  0        889091.133       -847645.848      -6959427.232
10 0 59614  47910.000000  0        667590.289       -894777.914      -6978001.217
10 0 59614  47940.000000  0        445215.513       -940038.376      -6989500.008
10 0 59614  47970.000000  0        222198.872       -983378.285      -6993911.302
10 0 59614  48000.000000  0         -1226.674      -1024751.618      -6991229.888
10 0 59614  48030.000000  0       -224827.509      -1064115.333      -6981457.659
10 0 59614  48060.000000  0       -448369.604      -1101429.409      -6964603.612
10 0 59614  48090.000000  0       -671618.760      -1136656.892      -6940683.846
10 0 59614  48120.000000  0       -894340.846      -1169763.929      -6909721.551
10 0 59614  48150.000000  0      -1116302.047      -1200719.802      -6871746.984
10 0 59614  48180.000000  0      -1337269.097      -1229496.954      -6826797.449
10 0 59614  48210.000000  0      -1557009.530      -1256071.021      -6774917.266
10 0 59614  48240.000000  0      -1775291.919      -1280420.846      -6716157.733
10 0 59614  48270.000000  0      -1991886.119      -1302528.500      -6650577.074
10 0 59614  48300.000000  0      -2206563.500      -1322379.291      -6578240.390
10 0 59614  48330.000000  0      -2419097.185      -1339961.777      -6499219.605
10 0 59614  48360.000000  0      -2629262.291      -1355267.766      -6413593.407
10 0 59614  48390.000000  0      -2836836.160      -1368292.322      -6321447.178
10 0 59614  48420.000000  0      -3041598.604      -1379033.759      -6222872.923
10 0 59614  48450.000000  0      -3243332.137      -1387493.638      -6117969.191
10 0 59614  48480.000000  0      -3441822.214      -1393676.753      -6006840.982
10 0 59614  48510.000000  0      -3636857.461      -1397591.115      -5889599.657
10 0 59614  48540.000000  0      -3828229.908      -1399247.936      -5766362.831
10 0 59614  48570.000000  0      -4015735.214      -1398661.600      -5637254.262
10 0 59614  48600.000000  0      -4199172.890      -1395849.636      -5502403.742
10 0 59614  48630.000000  0      -4378346.521      -1390832.691      -5361946.971
10 0 59614  48660.000000  0      -4553063.982      -1383634.488      -5216025.429
10 0 59614  48690.000000  0      -4723137.651      -1374281.788      -5064786.245
10 0 59614  48720.000000  0      -4888384.620      -1362804.349      -4908382.058
10 0 59614  48750.000000  0      -5048626.900      -1349234.873      -4746970.867
10 0 59614  48780.000000  0      -5203691.626      -1333608.957      -4580715.881
10 0 59614  48810.000000  0      -5353411.248      -1315965.038      -4409785.361
10 0 59614  48840.000000  0      -5497623.731      -1296344.332      -4234352.459
10 0 59614  48870.000000  0      -5636172.738      -1274790.771      -4054595.039
10 0 59614  48900.000000  0      -5768907.817      -1251350.936      -3870695.510
10 0 59614  48930.000000  0      -5895684.568      -1226073.985      -3682840.634
10 0 59614  48960.000000  0      -6016364.819      -1199011.582      -3491221.346
10 0 59614  48990.000000  0      -6130816.787      -1170217.812      -3296032.556
10 0 59614  49020.000000  0      -6238915.232      -1139749.108      -3097472.957
10 0 59614  49050.000000  0      -6340541.607      -1107664.161      -2895744.815
10 0 59614  49080.000000  0      -6435584.202      -1074023.833      -2691053.770
10 0 59614  49110.000000  0      -6523938.274      -1038891.066      -2483608.620
10 0 59614  49140.000000  0      -6605506.177      -1002330.790      -2273621.105
10 0 59614  49170.000000  0      -6680197.482       -964409.827      -2061305.692
10 0 59614  49200.000000  0      -6747929.086       -925196.789      -1846879.348
10 0 59614  49230.000000  0      -6808625.319       -884761.984      -1630561.314
10 0 59614  49260.000000  0      -6862218.039       -843177.302      -1412572.876
10 0 59614  49290.000000  0      -6908646.720       -800516.113      -1193137.121
10 0 59614  49320.000000  0      -6947858.519       -756853.156       -972478.709
10 0 59614  49350.000000  0      -6979808.350       -712264.423       -750823.628
10 0 59614  49380.000000  0      -7004458.931       -666827.051       -528398.961
10 0 59614  49410.000000  0      -7021780.840       -620619.205       -305432.639
10 0 59614  49440.000000  0      -7031752.546       -573719.961        -82153.207
10 0 59614  49470.000000  0      -7034360.445       -526209.196        141210.423
10 0 59614  49500.000000  0      -7029598.882       -478167.464        364429.212
10 0 59614  49530.000000  0      -7017470.161       -429675.880        587274.246
10 0 59614  49560.000000  0      -6997984.546       -380816.004        809516.974
10 0 59614  49590.000000  0      -6971160.252       -331669.714       1030929.459
10 0 59614  49620.000000  0      -6937023.428       -282319.095       1251284.616
10 0 59614  49650.000000  0      -6895608.127       -232846.308       1470356.459
10 0 59614  49680.000000  0      -6846956.271       -183333.482       1687920.338
10 0 59614  49710.000000  0      -6791117.603       -133862.582       1903753.181
10 0 59614  49740.000000  0      -6728149.634        -84515.298       2117633.729
10 0 59614  49770.000000  0      -6658117.572        -35372.921       2329342.776
10 0 59614  49800.000000  0      -6581094.257         13483.774       2538663.397
10 0 59614  49830.000000  0      -6497160.066         61974.646       2745381.180
10 0 59614  49860.000000  0      -6406402.830        110020.300       2949284.453
10 0 59614  49890.000000  0      -6308917.724        157542.211       3150164.508
10 0 59614  49920.000000  0      -6204807.163        204462.829       3347815.815
10 0 59614  49950.000000  0      -6094180.677        250705.694       3542036.240
10 0 59614  49980.000000  0      -5977154.794        296195.546       3732627.250
10 0 59614  50010.000000  0      -5853852.897        340858.433       3919394.125
10 0 59614  50040.000000  0      -5724405.090        384621.812       4102146.154
10 0 59614  50070.000000  0      -5588948.047        427414.658       4280696.831
10 0 59614  50100.000000  0      -5447624.853        469167.558       4454864.049
10 0 59614  50130.000000  0      -5300584.844        509812.819       4624470.279
10 0 59614  50160.000000  0      -5147983.436        549284.555       4789342.755
10 0 59614  50190.000000  0      -4989981.949        587518.783       4949313.637
10 0 59614  50220.000000  0      -4826747.430        624453.515       5104220.189
10 0 59614  50250.000000  0      -4658452.466        660028.844       5253904.933
10 0 59614  50280.000000  0      -4485274.990        694187.026       5398215.809
10 0 59614  50310.000000  0      -4307398.087        726872.564       5537006.331
10 0 59614  50340.000000  0      -4125009.787        758032.281       5670135.723
10 0 59614  50370.000000  0      -3938302.858        787615.399       5797469.064
99
